[{"OBJECT_NAME":"STARLINK-5013","OBJECT_ID":"2023-015AV","EPOCH":"2026-03-09T22:00:01.999584","MEAN_MOTION":15.111897,"ECCENTRICITY":0.00014324,"INCLINATION":42.9998,"RA_OF_ASC_NODE":337.2411,"ARG_OF_PERICENTER":265.0781,"MEAN_ANOMALY":110.1108,"EPHEMERIS_TYPE":0,"CLASSIFICATION_TYPE":"U","NORAD_CAT_ID":55492,"ELEMENT_SET_NO":999,"REV_AT_EPOCH":572,"BSTAR":-0.00088768448,"MEAN_MOTION_DOT":-0.00015354,"MEAN_MOTION_DDOT":0},{"OBJECT_NAME":"OBJECT F","OBJECT_ID":"2025-055F","EPOCH":"2026-03-09T23:18:16.432128","MEAN_MOTION":15.14826081,"ECCENTRICITY":0.00132444,"INCLINATION":97.6376,"RA_OF_ASC_NODE":208.0739,"ARG_OF_PERICENTER":110.0651,"MEAN_ANOMALY":250.2008,"EPHEMERIS_TYPE":0,"CLASSIFICATION_TYPE":"U","NORAD_CAT_ID":63296,"ELEMENT_SET_NO":999,"REV_AT_EPOCH":5397,"BSTAR":0.00069816497,"MEAN_MOTION_DOT":0.00012945,"MEAN_MOTION_DDOT":0}]
